{
  "norad_id": 64563,
  "name": "AE3VA",
  "history": [
    {
      "epoch": "2026-03-28T20:43:22.517184",
      "apogee_km": 581.3684035034357,
      "perigee_km": 576.4462946264721,
      "latitude_deg": 41.36392016798212,
      "longitude_deg": -0.8083142398390919,
      "semi_major_axis_km": 6957.044349064954,
      "eccentricity": 0.00035375,
      "inclination_deg": 97.757,
      "raan_deg": 203.3693,
      "arg_perigee_deg": 156.7135,
      "mean_anomaly_deg": 203.4248,
      "mean_motion_rev_day": 14.9611716
    },
    {
      "epoch": "2026-03-29T04:44:55.069440",
      "apogee_km": 581.3434453350847,
      "perigee_km": 576.4053586419532,
      "latitude_deg": -35.00696723558999,
      "longitude_deg": 31.29452160000801,
      "semi_major_axis_km": 6957.011401988519,
      "eccentricity": 0.0003549,
      "inclination_deg": 97.7571,
      "raan_deg": 203.7005,
      "arg_perigee_deg": 155.5413,
      "mean_anomaly_deg": 204.5977,
      "mean_motion_rev_day": 14.96127788
    }
  ]
}